{
"type": "FeatureCollection",
"name": "beijing-line-28-stops",
"crs": { "type": "name", "properties": { "name": "urn:ogc:def:crs:OGC:1.3:CRS84" } },
"features": [
{ "type": "Feature", "properties": { "full_id": null, "name": "Baiziwan", "name_zh": "百子湾" }, "geometry": { "type": "Point", "coordinates": [ 116.499895638706221, 39.89184047767715 ] } },
{ "type": "Feature", "properties": { "full_id": null, "name": "Guangqudonglu", "name_zh": "广渠东路" }, "geometry": { "type": "Point", "coordinates": [ 116.508757754649679, 39.883728305854326 ] } },
{ "type": "Feature", "properties": { "full_id": "", "name": "Dongdaqiao", "name_zh": "东大桥" }, "geometry": { "type": "Point", "coordinates": [ 116.445774912920555, 39.920607769718444 ] } },
{ "type": "Feature", "properties": { "full_id": null, "name": "Jingguangqiao", "name_zh": "京广桥" }, "geometry": { "type": "Point", "coordinates": [ 116.456882757161083, 39.917443501162879 ] } },
{ "type": "Feature", "properties": { "full_id": null, "name": "Hexinqu", "name_zh": "核心区" }, "geometry": { "type": "Point", "coordinates": [ 116.46350212556564, 39.909132253406661 ] } },
{ "type": "Feature", "properties": { "full_id": null, "name": "Dawanglu", "name_zh": "大望路" }, "geometry": { "type": "Point", "coordinates": [ 116.471254947464146, 39.906889086952894 ] } },
{ "type": "Feature", "properties": { "full_id": null, "name": "Beijing East Railway Station", "name_zh": "北京东站" }, "geometry": { "type": "Point", "coordinates": [ 116.477692963309678, 39.900420009597283 ] } },
{ "type": "Feature", "properties": { "full_id": null, "name": "Dajiaoting", "name_zh": "大郊亭" }, "geometry": { "type": "Point", "coordinates": [ 116.483314892639569, 39.891811016029393 ] } }
]
}
